MEAN_MOTION;ECCENTRICITY;INCLINATION;RA_OF_ASC_NODE;ARG_OF_PERICENTER;MEAN_ANOMALY;BSTAR;MEAN_MOTION_DOT;MEAN_MOTION_DDOT;TYPE
14.32749718;0.0011962;98.6823;22.3971;86.6277;325.4172;2.2944E-5;1.8E-7;0;Amateur
14.3274976;0.0011959;98.6825;23.0383;84.894;26.6995;1.9622E-5;9.0E-8;0;Amateur
14.32749815;0.0011956;98.6826;23.5154;83.6055;322.9573;1.9037E-5;7.0E-8;0;Amateur
14.32749891;0.0011959;98.6827;24.1596;81.8947;39.1766;1.979E-5;9.0E-8;0;Amateur
14.32749923;0.001196;98.6827;24.4929;81.0156;315.2983;1.8837E-5;7.0E-8;0;Amateur
14.32749978;0.0011959;98.6828;25.068;79.497;36.0492;1.8431E-5;5.0E-8;0;Amateur
14.32749994;0.001195;98.6828;25.3995;78.603;302.6121;1.6992E-5;2.0E-8;0;Amateur
14.32750014;0.0011955;98.6829;25.9153;77.2561;78.5004;1.4055E-5;-6.0E-8;0;Amateur
14.32750106;0.0011951;98.6831;26.8965;74.6508;89.7823;1.457E-5;-5.0E-8;0;Amateur
14.32750113;0.0011942;98.6831;27.3073;73.5508;44.5632;1.4561E-5;-5.0E-8;0;Amateur
14.327502;0.0011925;98.6833;28.3458;70.7966;351.0452;1.5905E-5;-1.0E-8;0;Amateur
14.32750207;0.0011925;98.6833;28.414;70.6137;342.0347;1.5835E-5;-2.0E-8;0;Amateur
14.32750252;0.0011898;98.6835;29.4659;67.809;356.7693;1.5088E-5;-4.0E-8;0;Amateur
14.32750296;0.0011876;98.6836;30.4441;65.2389;352.6874;1.5625E-5;-2.0E-8;0;Amateur
14.3275032;0.0011872;98.6837;30.8044;64.2748;47.856;1.664E-5;1.0E-8;0;Amateur
14.32750353;0.001185;98.6837;31.4963;62.4159;9.4252;1.6213E-5;-1.0E-8;0;Amateur
14.32750397;0.0011837;98.6838;32.1248;60.739;4.7108;1.609E-5;-1.0E-8;0;Amateur
14.32750448;0.0011821;98.6838;32.5398;59.6147;341.1457;1.7284E-5;2.0E-8;0;Amateur
14.32750495;0.0011808;98.6839;33.1843;57.8905;58.5594;1.7417E-5;3.0E-8;0;Amateur
14.3275052;0.0011799;98.6839;33.4533;57.167;3.1779;1.7317E-5;2.0E-8;0;Amateur
14.32750613;0.0011778;98.684;34.2318;55.0707;50.5582;2.0482E-5;1.1E-7;0;Amateur
14.32750654;0.0011766;98.684;34.5055;54.3283;19.5034;2.0097E-5;1.0E-7;0;Amateur
14.32750655;0.0011764;98.684;34.573;54.1526;7.0733;1.9788E-5;9.0E-8;0;Amateur
14.3275069;0.0011748;98.6841;35.0731;52.799;61.121;1.7762E-5;4.0E-8;0;Amateur
14.32750734;0.0011732;98.6841;35.4837;51.6742;14.9227;1.7557E-5;3.0E-8;0;Amateur
14.32750796;0.0011717;98.6841;36.0524;50.1604;62.5161;1.7132E-5;2.0E-8;0;Amateur
14.3275083;0.0011702;98.6842;36.4616;49.0333;8.7619;1.6836E-5;1.0E-8;0;Amateur
14.3275093;0.0011685;98.6843;37.1022;47.3311;65.9705;1.8974E-5;7.0E-8;0;Amateur
14.32750957;0.0011672;98.6843;37.4403;46.4234;6.6052;1.8122E-5;5.0E-8;0;Amateur
14.32751069;0.0011629;98.6845;38.4926;43.5625;23.0412;1.6743E-5;1.0E-8;0;Amateur
14.32751163;0.0011592;98.6846;39.4704;40.9235;15.8374;1.5897E-5;-1.0E-8;0;Amateur
14.32751228;0.0011569;98.6848;40.1123;39.2076;79.5331;1.6823E-5;1.0E-8;0;Amateur
14.32751292;0.0011557;98.6848;40.4494;38.2576;14.82;1.8174E-5;5.0E-8;0;Amateur
14.32751343;0.0011524;98.685;41.0928;36.5065;86.4915;1.7172E-5;2.0E-8;0;Amateur
14.3275141;0.0011494;98.6851;41.7109;34.7875;27.7788;1.7372E-5;3.0E-8;0;Amateur
14.32751501;0.0011461;98.6852;42.4801;32.6171;26.4338;1.7848E-5;4.0E-8;0;Amateur
14.32751568;0.0011434;98.6854;43.1213;30.8571;86.5235;1.9517E-5;8.0E-8;0;Amateur
14.32751617;0.0011415;98.6854;43.4588;29.9142;23.2698;2.0517E-5;1.1E-7;0;Amateur
14.32751711;0.0011382;98.6855;44.1001;28.1426;83.8486;2.2121E-5;1.5E-7;0;Amateur
14.32751759;0.001137;98.6856;44.4411;27.1391;38.8269;2.29E-5;1.8E-7;0;Amateur
14.32751894;0.0011313;98.6857;45.4896;24.2346;34.7958;2.3582E-5;1.9E-7;0;Amateur
14.32751906;0.0011305;98.6857;45.557;24.0579;21.7936;2.3894E-5;2.0E-7;0;Amateur
14.32752021;0.0011256;98.6857;46.4683;21.4965;31.8979;2.6081E-5;2.6E-7;0;Amateur
14.32752035;0.0011238;98.6858;46.7508;20.7277;46.1099;2.5788E-5;2.5E-7;0;Amateur
14.32752149;0.0011202;98.6858;47.4479;18.7342;33.5353;2.6841E-5;2.8E-7;0;Amateur
14.32752243;0.0011171;98.6859;48.0894;16.9242;95.0766;2.6567E-5;2.8E-7;0;Amateur
14.32752417;0.0011098;98.686;49.4089;13.1671;45.5219;2.7512E-5;3.0E-7;0;Amateur
14.32752423;0.0011095;98.686;49.4778;12.9841;40.3043;2.7235E-5;2.9E-7;0;Amateur
14.32752541;0.001104;98.6861;50.459;10.1326;50.1347;2.5743E-5;2.5E-7;0;Amateur
14.32752652;0.0010988;98.6863;51.5094;7.0972;55.4175;2.2089E-5;1.5E-7;0;Amateur
14.32752656;0.0010985;98.6863;51.5758;6.9029;36.9235;2.1725E-5;1.4E-7;0;Amateur
14.32752739;0.001093;98.6864;52.5541;4.076;31.989;1.9375E-5;8.0E-8;0;Amateur
14.32752739;0.001093;98.6864;52.5541;4.076;31.989;1.9375E-5;8.0E-8;0;Amateur
14.32752799;0.0010876;98.6865;53.4672;1.4257;51.0007;1.6476E-5;0;0;Amateur
14.32752829;0.0010846;98.6867;54.1091;359.5465;114.2173;1.3166E-5;-9.0E-8;0;Amateur
14.32752861;0.0010827;98.6867;54.5196;358.3344;66.9541;1.2458E-5;-1.1E-7;0;Amateur
14.32752926;0.0010771;98.6868;55.4974;355.4778;58.0279;1.1729E-5;-1.3E-7;0;Amateur
14.32752974;0.0010712;98.687;56.409;352.8228;69.2308;1.1627E-5;-1.3E-7;0;Amateur
14.32752985;0.0010707;98.687;56.4792;352.6115;70.5513;1.1643E-5;-1.3E-7;0;Amateur
14.32753064;0.0010643;98.6872;57.5299;349.5096;76.5115;1.1787E-5;-1.3E-7;0;Amateur
14.32753159;0.0010582;98.6873;58.5082;346.6118;70.773;1.4602E-5;-5.0E-8;0;Amateur
14.32753168;0.0010564;98.6873;58.7903;345.7984;82.0868;1.5213E-5;-3.0E-8;0;Amateur
14.32753227;0.0010521;98.6874;59.4874;343.6934;69.0921;1.6294E-5;-1.0E-8;0;Amateur
14.32753253;0.0010476;98.6875;60.129;341.7716;129.9748;1.5524E-5;-3.0E-8;0;Amateur
14.32753287;0.0010461;98.6875;60.5405;340.5273;87.8993;1.5785E-5;-2.0E-8;0;Amateur
14.32753339;0.0010422;98.6876;61.1088;338.834;131.9834;1.6469E-5;0;0;Amateur
14.32753387;0.0010388;98.6876;61.5185;337.5543;79.8509;1.7979E-5;4.0E-8;0;Amateur
14.32753478;0.0010353;98.6877;62.0893;335.8132;136.9726;2.0836E-5;1.2E-7;0;Amateur
14.32753585;0.001029;98.6877;63.0695;332.8082;140.6188;2.0727E-5;1.2E-7;0;Amateur
14.32753583;0.0010286;98.6877;63.1391;332.5896;138.6875;2.0632E-5;1.1E-7;0;Amateur
14.32753649;0.0010266;98.6878;63.5504;331.2719;95.4013;2.1155E-5;1.3E-7;0;Amateur
14.32753724;0.0010231;98.6878;64.1192;329.5281;141.6962;2.096E-5;1.2E-7;0;Amateur
14.32753771;0.0010212;98.6878;64.5285;328.2668;87.9912;2.0999E-5;1.2E-7;0;Amateur
14.32753861;0.001017;98.6879;65.1703;326.2616;150.5385;2.2564E-5;1.7E-7;0;Amateur
14.32753903;0.0010154;98.6879;65.508;325.2232;87.6702;2.2135E-5;1.5E-7;0;Amateur
14.32754046;0.0010113;98.6881;66.5613;321.9021;107.414;2.0996E-5;1.2E-7;0;Amateur
14.32754144;0.0010052;98.6882;67.5396;318.8629;101.3063;1.867E-5;6.0E-8;0;Amateur
14.32754224;0.0010023;98.6883;68.2507;316.6778;159.5875;1.9471E-5;8.0E-8;0;Amateur
14.32754272;0.0010007;98.6883;68.5185;315.8207;97.321;1.9619E-5;8.0E-8;0;Amateur
14.32754395;0.0009979;98.6885;69.572;312.5555;117.5325;1.8511E-5;5.0E-8;0;Amateur
14.32754457;0.000996;98.6886;70.1405;310.762;162.5455;1.7775E-5;3.0E-8;0;Amateur
14.32754495;0.0009934;98.6887;70.5501;309.425;109.6286;1.7743E-5;3.0E-8;0;Amateur
14.32754535;0.0009908;98.6888;71.192;307.3787;172.2139;1.7676E-5;3.0E-8;0;Amateur
14.32754542;0.0009902;98.6888;71.3293;306.9473;158.5179;1.7883E-5;4.0E-8;0;Amateur
14.32754571;0.00099;98.6889;71.5293;306.3486;106.8165;1.7687E-5;3.0E-8;0;Amateur
14.32754601;0.0009867;98.689;72.1708;304.2813;167.5091;1.6581E-5;0;0;Amateur
14.32754625;0.0009857;98.689;72.5093;303.1939;108.8684;1.6177E-5;-1.0E-8;0;Amateur
14.32754759;0.0009826;98.6892;73.5611;299.7692;120.209;1.7703E-5;3.0E-8;0;Amateur
14.32754871;0.0009786;98.6893;74.5401;296.5954;116.8092;2.0646E-5;1.1E-7;0;Amateur
14.32754914;0.0009768;98.6893;75.1816;294.5036;177.2268;2.0895E-5;1.2E-7;0;Amateur
14.32754961;0.0009767;98.6893;75.5201;293.4136;118.832;2.1452E-5;1.3E-7;0;Amateur
14.32755102;0.0009723;98.6895;77.144;288.1182;192.8477;2.0915E-5;1.2E-7;0;Amateur
14.32755213;0.0009703;98.6895;78.5312;283.6166;128.9196;2.0248E-5;1.0E-7;0;Amateur
14.32755256;0.0009693;98.6896;79.1739;281.4988;195.039;1.8164E-5;4.0E-8;0;Amateur
14.32755289;0.0009686;98.6896;79.5837;280.1207;143.5145;1.7392E-5;2.0E-8;0;Amateur
14.32755313;0.0009685;98.6896;79.6495;279.9069;122.0242;1.8354E-5;5.0E-8;0;Amateur
14.3275538;0.0009679;98.6897;80.1535;278.2934;194.3214;1.8698E-5;6.0E-8;0;Amateur
14.32755395;0.0009676;98.6897;80.6287;276.7217;119.0628;1.6786E-5;1.0E-8;0;Amateur
14.32755398;0.000967;98.6898;80.845;276.0032;151.5537;1.6429E-5;0;0;Amateur
14.32755476;0.0009668;98.6898;81.5423;273.7326;138.7622;1.573E-5;-2.0E-8;0;Amateur
14.32755532;0.0009661;98.6899;82.0518;272.0542;239.6388;1.4303E-5;-6.0E-8;0;Amateur
14.32755607;0.000966;98.6899;82.3962;270.8861;211.3206;1.716E-5;2.0E-8;0;Amateur
14.32755661;0.0009656;98.69;83.165;268.3583;206.2429;1.4108E-5;-7.0E-8;0;Amateur
14.32755642;0.0009653;98.69;83.3053;267.9016;208.2311;1.2868E-5;-1.0E-7;0;Amateur
14.32755719;0.0009647;98.6901;84.2153;264.8801;208.9245;1.2773E-5;-1.0E-7;0;Amateur
14.32755844;0.0009661;98.6903;85.6067;260.2757;166.5687;1.1527E-5;-1.4E-7;0;Amateur
14.32755942;0.0009669;98.6904;86.6522;256.8595;144.3491;1.2908E-5;-1.0E-7;0;Amateur
14.32755942;0.0009669;98.6904;86.6522;256.8595;144.3491;1.2908E-5;-1.0E-7;0;Amateur
14.32756027;0.0009679;98.6905;87.5649;253.8651;159.181;1.516E-5;-4.0E-8;0;Amateur
14.32756044;0.0009682;98.6905;87.8474;252.9093;172.3898;1.5374E-5;-3.0E-8;0;Amateur
14.32756092;0.000969;98.6905;88.3457;251.2593;215.5221;1.603E-5;-1.0E-8;0;Amateur
14.32756122;0.0009696;98.6905;88.5466;250.6196;169.0417;1.6174E-5;-1.0E-8;0;Amateur
14.32756197;0.0009704;98.6906;89.1869;248.5374;222.5031;1.7183E-5;2.0E-8;0;Amateur
14.32756255;0.0009713;98.6906;89.6635;246.9974;153.8011;1.8793E-5;6.0E-8;0;Amateur
14.32756331;0.000972;98.6907;90.2385;245.1594;231.2;2.1551E-5;1.4E-7;0;Amateur
14.32756382;0.0009732;98.6907;90.6432;243.8337;152.9591;2.198E-5;1.5E-7;0;Amateur
14.32756493;0.0009759;98.6907;91.6297;240.6166;187.0705;2.202E-5;1.5E-7;0;Amateur
14.32756597;0.0009781;98.6907;92.6083;237.4386;180.3762;2.1478E-5;1.4E-7;0;Amateur
14.3275661;0.0009783;98.6908;92.676;237.2164;168.8064;2.1845E-5;1.5E-7;0;Amateur
14.32756742;0.000981;98.6908;93.6547;234.0195;162.6253;2.3163E-5;1.8E-7;0;Amateur
14.32756791;0.0009827;98.6908;94.231;232.1711;246.9258;2.1808E-5;1.4E-7;0;Amateur
